start=new Date('2021-11-14T00:00:00.000Z').valueOf();
sats=[{"PERIAPSIS":"410.458","EPOCH":"2021-11-13T22:00:00.999936","TLE_LINE1":"1 47996U 21024V   21317.91667824 -.00661111  00000-0 -11801-1 0  9991","CLASSIFICATION_TYPE":"U","MEAN_ANOMALY":"142.0480","CENTER_NAME":"EARTH","DECAY_DATE":null,"TIME_SYSTEM":"UTC","OBJECT_ID":"2021-024V","EPHEMERIS_TYPE":"0","COUNTRY_CODE":"US","MEAN_MOTION":"15.51833308","MEAN_ELEMENT_THEORY":"SGP4","LAUNCH_DATE":"2021-03-24","OBJECT_NAME":"STARLINK-2260","SEMIMAJOR_AXIS":"6789.510","RCS_SIZE":"LARGE","BSTAR":"-0.01180100000000","REV_AT_EPOCH":"369","APOAPSIS":"412.293","INCLINATION":"53.0389","NORAD_CAT_ID":"47996","MEAN_MOTION_DDOT":"0.0000000000000","ECCENTRICITY":"0.00013510","RA_OF_ASC_NODE":"120.1528","FILE":"3214514","SITE":"AFETR","REF_FRAME":"TEME","PERIOD":"92.793","TLE_LINE2":"2 47996  53.0389 120.1528 0001351  66.7334 142.0480 15.51833308  3697","ELEMENT_SET_NO":"999","ARG_OF_PERICENTER":"66.7334","MEAN_MOTION_DOT":"-0.00661111","OBJECT_TYPE":"PAYLOAD","GP_ID":"189713186"},{"PERIAPSIS":"545.831","EPOCH":"2021-11-13T21:54:52.655616","MEAN_ANOMALY":"288.4834","CLASSIFICATION_TYPE":"U","TLE_LINE1":"1 47997U 21024W   21317.91310944  .00000209  00000-0  32940-4 0  9993","TIME_SYSTEM":"UTC","DECAY_DATE":null,"CENTER_NAME":"EARTH","MEAN_ELEMENT_THEORY":"SGP4","COUNTRY_CODE":"US","MEAN_MOTION":"15.06396754","EPHEMERIS_TYPE":"0","OBJECT_ID":"2021-024W","LAUNCH_DATE":"2021-03-24","SEMIMAJOR_AXIS":"6925.359","RCS_SIZE":"LARGE","OBJECT_NAME":"STARLINK-2266","REV_AT_EPOCH":"3725","BSTAR":"0.00003294000000","MEAN_MOTION_DDOT":"0.0000000000000","INCLINATION":"53.0565","APOAPSIS":"548.616","NORAD_CAT_ID":"47997","ECCENTRICITY":"0.00020110","RA_OF_ASC_NODE":"190.0451","REF_FRAME":"TEME","FILE":"3214514","SITE":"AFETR","OBJECT_TYPE":"PAYLOAD","MEAN_MOTION_DOT":"0.00000209","ARG_OF_PERICENTER":"71.6374","ELEMENT_SET_NO":"999","TLE_LINE2":"2 47997  53.0565 190.0451 0002011  71.6374 288.4834 15.06396754 37254","PERIOD":"95.592","GP_ID":"189711934"},{"DECAY_DATE":null,"CENTER_NAME":"EARTH","TIME_SYSTEM":"UTC","OBJECT_ID":"2021-024X","MEAN_ELEMENT_THEORY":"SGP4","MEAN_MOTION":"15.06396271","COUNTRY_CODE":"US","EPHEMERIS_TYPE":"0","LAUNCH_DATE":"2021-03-24","OBJECT_NAME":"STARLINK-2296","RCS_SIZE":"LARGE","SEMIMAJOR_AXIS":"6925.360","PERIAPSIS":"546.124","EPOCH":"2021-11-13T19:57:24.532416","CLASSIFICATION_TYPE":"U","TLE_LINE1":"1 47998U 21024X   21317.83153394  .00000811  00000-0  73368-4 0  9997","MEAN_ANOMALY":"284.1878","RA_OF_ASC_NODE":"165.4048","ECCENTRICITY":"0.00015900","REF_FRAME":"TEME","SITE":"AFETR","FILE":"3214514","ARG_OF_PERICENTER":"75.9288","ELEMENT_SET_NO":"999","PERIOD":"95.592","TLE_LINE2":"2 47998  53.0528 165.4048 0001590  75.9288 284.1878 15.06396271 37530","MEAN_MOTION_DOT":"0.00000811","OBJECT_TYPE":"PAYLOAD","GP_ID":"189712184","BSTAR":"0.00007336800000","REV_AT_EPOCH":"3753","INCLINATION":"53.0528","APOAPSIS":"548.326","NORAD_CAT_ID":"47998","MEAN_MOTION_DDOT":"0.0000000000000"},{"PERIAPSIS":"545.984","MEAN_ANOMALY":"193.5198","TLE_LINE1":"1 47999U 21024Y   21317.91667824  .00037065  00000-0  24962-2 0  9990","CLASSIFICATION_TYPE":"U","EPOCH":"2021-11-13T22:00:00.999936","COUNTRY_CODE":"US","EPHEMERIS_TYPE":"0","MEAN_MOTION":"15.06369324","MEAN_ELEMENT_THEORY":"SGP4","OBJECT_ID":"2021-024Y","TIME_SYSTEM":"UTC","CENTER_NAME":"EARTH","DECAY_DATE":null,"RCS_SIZE":"LARGE","SEMIMAJOR_AXIS":"6925.443","OBJECT_NAME":"STARLINK-2218","LAUNCH_DATE":"2021-03-24","MEAN_MOTION_DDOT":"0.0000000000000","INCLINATION":"53.0541","APOAPSIS":"548.631","NORAD_CAT_ID":"47999","REV_AT_EPOCH":"359","BSTAR":"0.00249620000000","SITE":"AFETR","FILE":"3214514","REF_FRAME":"TEME","ECCENTRICITY":"0.00019110","RA_OF_ASC_NODE":"135.0163","GP_ID":"189712435","OBJECT_TYPE":"PAYLOAD","MEAN_MOTION_DOT":"0.00037065","PERIOD":"95.594","TLE_LINE2":"2 47999  53.0541 135.0163 0001911  53.5830 193.5198 15.06369324  3595","ARG_OF_PERICENTER":"53.5830","ELEMENT_SET_NO":"999"},{"GP_ID":"189712686","PERIOD":"93.688","TLE_LINE2":"2 48000  53.0420 122.1962 0001352  58.7765 258.6946 15.37016083  3670","ARG_OF_PERICENTER":"58.7765","ELEMENT_SET_NO":"999","MEAN_MOTION_DOT":"-0.00704263","OBJECT_TYPE":"PAYLOAD","FILE":"3214514","SITE":"AFETR","REF_FRAME":"TEME","RA_OF_ASC_NODE":"122.1962","ECCENTRICITY":"0.00013520","NORAD_CAT_ID":"48000","APOAPSIS":"455.865","INCLINATION":"53.0420","MEAN_MOTION_DDOT":"0.0000000000000","BSTAR":"-0.02071300000000","REV_AT_EPOCH":"367","OBJECT_NAME":"STARLINK-2270","SEMIMAJOR_AXIS":"6833.076","RCS_SIZE":"LARGE","LAUNCH_DATE":"2021-03-24","OBJECT_ID":"2021-024Z","MEAN_MOTION":"15.37016083","COUNTRY_CODE":"US","EPHEMERIS_TYPE":"0","MEAN_ELEMENT_THEORY":"SGP4","CENTER_NAME":"EARTH","DECAY_DATE":null,"TIME_SYSTEM":"UTC","TLE_LINE1":"1 48000U 21024Z   21317.91667824 -.00704263  00000-0 -20713-1 0  9996","CLASSIFICATION_TYPE":"U","MEAN_ANOMALY":"258.6946","EPOCH":"2021-11-13T22:00:00.999936","PERIAPSIS":"454.017"},{"BSTAR":"0.00212650000000","REV_AT_EPOCH":"369","APOAPSIS":"303.156","INCLINATION":"53.0433","NORAD_CAT_ID":"48001","MEAN_MOTION_DDOT":"0.0000000000000","ARG_OF_PERICENTER":"28.3267","ELEMENT_SET_NO":"999","TLE_LINE2":"2 48001  53.0433 118.0602 0001937  28.3267  64.3324 15.90151071  3699","PERIOD":"90.557","MEAN_MOTION_DOT":"0.00711928","OBJECT_TYPE":"PAYLOAD","GP_ID":"189711434","ECCENTRICITY":"0.00019370","RA_OF_ASC_NODE":"118.0602","REF_FRAME":"TEME","SITE":"AFETR","FILE":"3214514","EPOCH":"2021-11-13T22:00:00.999936","CLASSIFICATION_TYPE":"U","TLE_LINE1":"1 48001U 21024AA  21317.91667824  .00711928  00000-0  21265-2 0  9995","MEAN_ANOMALY":"64.3324","PERIAPSIS":"300.568","LAUNCH_DATE":"2021-03-24","OBJECT_NAME":"STARLINK-2262","RCS_SIZE":"MEDIUM","SEMIMAJOR_AXIS":"6679.997","DECAY_DATE":null,"CENTER_NAME":"EARTH","TIME_SYSTEM":"UTC","OBJECT_ID":"2021-024AA","MEAN_ELEMENT_THEORY":"SGP4","COUNTRY_CODE":"US","EPHEMERIS_TYPE":"0","MEAN_MOTION":"15.90151071"},{"ECCENTRICITY":"0.00023340","RA_OF_ASC_NODE":"140.0145","REF_FRAME":"TEME","FILE":"3214514","SITE":"AFETR","ELEMENT_SET_NO":"999","ARG_OF_PERICENTER":"67.4998","PERIOD":"95.593","TLE_LINE2":"2 48002  53.0536 140.0145 0002334  67.4998 212.0230 15.06390214  3596","MEAN_MOTION_DOT":"0.00034346","OBJECT_TYPE":"PAYLOAD","GP_ID":"189711684","BSTAR":"0.00231400000000","REV_AT_EPOCH":"359","INCLINATION":"53.0536","APOAPSIS":"548.860","NORAD_CAT_ID":"48002","MEAN_MOTION_DDOT":"0.0000000000000","DECAY_DATE":null,"CENTER_NAME":"EARTH","TIME_SYSTEM":"UTC","OBJECT_ID":"2021-024AB","MEAN_ELEMENT_THEORY":"SGP4","EPHEMERIS_TYPE":"0","COUNTRY_CODE":"US","MEAN_MOTION":"15.06390214","LAUNCH_DATE":"2021-03-24","OBJECT_NAME":"STARLINK-2265","SEMIMAJOR_AXIS":"6925.379","RCS_SIZE":"LARGE","PERIAPSIS":"545.627","EPOCH":"2021-11-13T22:00:00.999936","CLASSIFICATION_TYPE":"U","TLE_LINE1":"1 48002U 21024AB  21317.91667824  .00034346  00000-0  23140-2 0  9992","MEAN_ANOMALY":"212.0230"},{"EPOCH":"2021-11-13T21:11:45.087072","CLASSIFICATION_TYPE":"U","TLE_LINE1":"1 48003U 21024AC  21317.88316073 -.00000376  00000-0 -63666-5 0  9994","MEAN_ANOMALY":"301.7013","PERIAPSIS":"546.043","LAUNCH_DATE":"2021-03-24","OBJECT_NAME":"STARLINK-2263","SEMIMAJOR_AXIS":"6925.378","RCS_SIZE":"LARGE","DECAY_DATE":null,"CENTER_NAME":"EARTH","TIME_SYSTEM":"UTC","OBJECT_ID":"2021-024AC","MEAN_ELEMENT_THEORY":"SGP4","COUNTRY_CODE":"US","EPHEMERIS_TYPE":"0","MEAN_MOTION":"15.06390449","BSTAR":"-0.00000636660000","REV_AT_EPOCH":"3683","APOAPSIS":"548.442","INCLINATION":"53.0553","NORAD_CAT_ID":"48003","MEAN_MOTION_DDOT":"0.0000000000000","ELEMENT_SET_NO":"999","ARG_OF_PERICENTER":"58.4145","TLE_LINE2":"2 48003  53.0553 215.1654 0001732  58.4145 301.7013 15.06390449 36838","PERIOD":"95.593","OBJECT_TYPE":"PAYLOAD","MEAN_MOTION_DOT":"-0.00000376","GP_ID":"189712936","ECCENTRICITY":"0.00017320","RA_OF_ASC_NODE":"215.1654","REF_FRAME":"TEME","SITE":"AFETR","FILE":"3214514"},{"OBJECT_ID":"2021-024AD","MEAN_ELEMENT_THEORY":"SGP4","COUNTRY_CODE":"US","EPHEMERIS_TYPE":"0","MEAN_MOTION":"15.73210399","DECAY_DATE":null,"CENTER_NAME":"EARTH","TIME_SYSTEM":"UTC","OBJECT_NAME":"STARLINK-2261","RCS_SIZE":"LARGE","SEMIMAJOR_AXIS":"6727.866","LAUNCH_DATE":"2021-03-24","PERIAPSIS":"343.750","CLASSIFICATION_TYPE":"U","TLE_LINE1":"1 48004U 21024AD  21317.91667824  .00057508  00000-0  41026-3 0  9993","MEAN_ANOMALY":"279.9229","EPOCH":"2021-11-13T22:00:00.999936","REF_FRAME":"TEME","FILE":"3214514","SITE":"AFETR","ECCENTRICITY":"0.00088890","RA_OF_ASC_NODE":"118.5480","GP_ID":"189713187","ARG_OF_PERICENTER":"299.4070","ELEMENT_SET_NO":"999","PERIOD":"91.533","TLE_LINE2":"2 48004  53.0420 118.5480 0008889 299.4070 279.9229 15.73210399  3691","MEAN_MOTION_DOT":"0.00057508","OBJECT_TYPE":"PAYLOAD","APOAPSIS":"355.711","NORAD_CAT_ID":"48004","INCLINATION":"53.0420","MEAN_MOTION_DDOT":"0.0000000000000","BSTAR":"0.00041026000000","REV_AT_EPOCH":"369"},{"REV_AT_EPOCH":"3726","BSTAR":"-0.00002702300000","MEAN_MOTION_DDOT":"0.0000000000000","INCLINATION":"53.0576","APOAPSIS":"549.117","NORAD_CAT_ID":"48005","ECCENTRICITY":"0.00027380","RA_OF_ASC_NODE":"184.9848","REF_FRAME":"TEME","FILE":"3214514","SITE":"AFETR","MEAN_MOTION_DOT":"-0.00000685","OBJECT_TYPE":"PAYLOAD","ARG_OF_PERICENTER":"86.5005","ELEMENT_SET_NO":"999","PERIOD":"95.592","TLE_LINE2":"2 48005  53.0576 184.9848 0002738  86.5005 273.6297 15.06397724 37269","GP_ID":"189711935","PERIAPSIS":"545.324","EPOCH":"2021-11-13T22:14:07.157472","MEAN_ANOMALY":"273.6297","CLASSIFICATION_TYPE":"U","TLE_LINE1":"1 48005U 21024AE  21317.92647173 -.00000685  00000-0 -27023-4 0  9998","TIME_SYSTEM":"UTC","DECAY_DATE":null,"CENTER_NAME":"EARTH","MEAN_ELEMENT_THEORY":"SGP4","COUNTRY_CODE":"US","EPHEMERIS_TYPE":"0","MEAN_MOTION":"15.06397724","OBJECT_ID":"2021-024AE","LAUNCH_DATE":"2021-03-24","RCS_SIZE":"LARGE","SEMIMAJOR_AXIS":"6925.356","OBJECT_NAME":"STARLINK-2254"}];
